NORAD_CAT_ID,OBJECT_NAME,OBJECT_TYPE,EPOCH,MEAN_MOTION,ECCENTRICITY,INCLINATION,RA_OF_ASC_NODE,ARG_OF_PERICENTER,MEAN_ANOMALY,BSTAR,MEAN_MOTION_DOT,MEAN_MOTION_DDOT,TLE_LINE0,TLE_LINE1,TLE_LINE2,SEMIMAJOR_AXIS,PERIOD,APOGEE,PERIGEE,DECAYED
56785.0,STARLINK-5931,PAYLOAD,2023-08-26 20:23:52,15.69890935,0.0002956,69.999,167.0779,259.0179,101.0684,8.2025e-05,9.647e-05,0.0,0 STARLINK-5931,1 56785U 23078U   23238.84991178  .00009647  00000-0  82025-4 0  9993,2 56785  69.9990 167.0779 0002956 259.0179 101.0684 15.69890935 14489,6737.346,91.726,361.203,357.219,0.0
56785.0,STARLINK-5931,PAYLOAD,2023-08-27 04:02:38,15.69911457,0.0003193,69.9984,166.1818,260.9763,99.1072,3.9459e-05,4.532e-05,0.0,0 STARLINK-5931,1 56785U 23078U   23239.16849632  .00004532  00000-0  39459-4 0  9997,2 56785  69.9984 166.1818 0003193 260.9763  99.1072 15.69911457 14100,6737.287,91.725,361.304,357.001,0.0
56785.0,STARLINK-5931,PAYLOAD,2023-08-27 20:51:54,15.6992327,0.00031,69.9987,164.2115,258.5683,101.5164,8.6887e-06,8.32e-06,0.0,0 STARLINK-5931,1 56785U 23078U   23239.86937869  .00000832  00000-0  86887-5 0  9991,2 56785  69.9987 164.2115 0003100 258.5683 101.5164 15.69923270 14649,6737.254,91.724,361.207,357.03,0.0
56785.0,STARLINK-5931,PAYLOAD,2023-08-28 06:02:25,15.6992033,0.0003044,69.9978,163.134,269.6206,90.4641,3.9464e-06,2.62e-06,0.0,0 STARLINK-5931,1 56785U 23078U   23240.25168154  .00000262  00000-0  39464-5 0  9995,2 56785  69.9978 163.1340 0003044 269.6206  90.4641 15.69920330 14277,6737.262,91.724,361.178,357.076,0.0
56785.0,STARLINK-5931,PAYLOAD,2023-08-28 12:09:25,15.69927016,0.0003889,69.9981,162.4204,258.4261,101.6498,1.1126e-05,1.125e-05,0.0,0 STARLINK-5931,1 56785U 23078U   23240.50654010  .00001125  00000-0  11126-4 0  9997,2 56785  69.9981 162.4204 0003889 258.4261 101.6498 15.69927016 14314,6737.243,91.724,361.728,356.488,0.0
56785.0,STARLINK-5931,PAYLOAD,2023-08-28 21:19:56,15.69930067,0.0003304,69.9975,161.3435,267.2146,92.8671,3.4598e-06,2.03e-06,0.0,0 STARLINK-5931,1 56785U 23078U   23240.88884287  .00000203  00000-0  34598-5 0  9994,2 56785  69.9975 161.3435 0003304 267.2146  92.8671 15.69930067 14801,6737.234,91.724,361.325,356.873,0.0
56785.0,STARLINK-5931,PAYLOAD,2023-08-29 04:58:41,15.69925518,0.000341,69.9977,160.4489,265.7509,94.3297,7.3831e-06,6.75e-06,0.0,0 STARLINK-5931,1 56785U 23078U   23241.20742771  .00000675  00000-0  73831-5 0  9998,2 56785  69.9977 160.4489 0003410 265.7509  94.3297 15.69925518 14857,6737.247,91.724,361.409,356.815,0.0
56785.0,STARLINK-5931,PAYLOAD,2023-08-29 20:16:13,15.69921616,0.0003389,69.9969,158.6555,267.6718,92.409,6.1352e-06,5.25e-06,0.0,0 STARLINK-5931,1 56785U 23078U   23241.84459889  .00000525  00000-0  61352-5 0  9992,2 56785  69.9969 158.6555 0003389 267.6718  92.4090 15.69921616 14528,6737.258,91.724,361.407,356.84,0.0
56785.0,STARLINK-5931,PAYLOAD,2023-08-30 11:34:08,15.69620042,0.0004243,69.9974,156.8661,238.5488,121.5293,-0.00031618,-0.00037596,0.0,0 STARLINK-5931,1 56785U 23078U   23242.48204015 -.00037596  00000-0 -31618-3 0  9992,2 56785  69.9974 156.8661 0004243 238.5488 121.5293 15.69620042 14622,6738.121,91.742,362.845,357.127,0.0
56785.0,STARLINK-5931,PAYLOAD,2023-08-31 02:51:15,15.69922888,0.0003692,69.9964,155.0757,257.9832,102.095,1.3377e-05,1.396e-05,0.0,0 STARLINK-5931,1 56785U 23078U   23243.11893140  .00001396  00000-0  13377-4 0  9996,2 56785  69.9964 155.0757 0003692 257.9832 102.0950 15.69922888 14721,6737.255,91.724,361.607,356.632,0.0
56785.0,STARLINK-5931,PAYLOAD,2023-09-01 10:58:03,15.69907999,0.0003573,69.9964,151.3146,267.6153,92.4634,4.3051e-05,4.963e-05,0.0,0 STARLINK-5931,1 56785U 23078U   23244.45698690  .00004963  00000-0  43051-4 0  9992,2 56785  69.9964 151.3146 0003573 267.6153  92.4634 15.69907999 14934,6737.297,91.725,361.569,356.755,0.0
56785.0,STARLINK-5931,PAYLOAD,2023-09-01 17:05:03,15.6992395,0.0003415,69.9973,150.5949,269.8806,90.1998,4.495e-06,3.28e-06,0.0,0 STARLINK-5931,1 56785U 23078U   23244.71185033  .00000328  00000-0  44950-5 0  9994,2 56785  69.9973 150.5949 0003415 269.8806  90.1998 15.69923950 14977,6737.252,91.724,361.417,356.816,0.0
56785.0,STARLINK-5931,PAYLOAD,2023-09-02 03:47:19,15.69924554,0.0003494,69.9973,149.3405,270.966,89.1135,5.0352e-06,3.93e-06,0.0,0 STARLINK-5931,1 56785U 23078U   23245.15786693  .00000393  00000-0  50352-5 0  9997,2 56785  69.9973 149.3405 0003494 270.9660  89.1135 15.69924554 15476,6737.25,91.724,361.469,356.761,0.0
56785.0,STARLINK-5931,PAYLOAD,2023-09-02 19:04:50,15.69930129,0.0003726,69.9976,147.5502,270.7265,89.3504,9.5025e-06,9.3e-06,0.0,0 STARLINK-5931,1 56785U 23078U   23245.79502595  .00000930  00000-0  95025-5 0  9997,2 56785  69.9976 147.5502 0003726 270.7265  89.3504 15.69930129 15572,6737.234,91.724,361.609,356.589,0.0
56785.0,STARLINK-5931,PAYLOAD,2023-09-03 01:11:50,15.69930432,0.0003427,69.9963,146.8324,272.3942,87.6861,1.6604e-05,1.785e-05,0.0,0 STARLINK-5931,1 56785U 23078U   23246.04989281  .00001785  00000-0  16604-4 0  9991,2 56785  69.9963 146.8324 0003427 272.3942  87.6861 15.69930432 15181,6737.233,91.724,361.407,356.789,0.0
56785.0,STARLINK-5931,PAYLOAD,2023-09-03 10:22:23,15.69907571,0.0003524,69.9961,145.7579,266.3144,93.7648,-7.0628e-06,-1.061e-05,0.0,0 STARLINK-5931,1 56785U 23078U   23246.43221334 -.00001061  00000-0 -70628-5 0  9998,2 56785  69.9961 145.7579 0003524 266.3144  93.7648 15.69907571 15240,6737.298,91.725,361.538,356.789,0.0
56785.0,STARLINK-5931,PAYLOAD,2023-09-04 03:11:39,15.69915803,0.0003458,69.998,143.7858,266.8474,93.2326,-3.3664e-06,-6.17e-06,0.0,0 STARLINK-5931,1 56785U 23078U   23247.13309519 -.00000617  00000-0 -33664-5 0  9993,2 56785  69.9980 143.7858 0003458 266.8474  93.2326 15.69915803 15353,6737.275,91.725,361.47,356.81,0.0
56785.0,STARLINK-5931,PAYLOAD,2023-09-04 10:50:23,15.69934397,0.000367,69.9966,142.8905,266.4476,93.63,1.2179e-05,1.252e-05,0.0,0 STARLINK-5931,1 56785U 23078U   23247.45166330  .00001252  00000-0  12179-4 0  9991,2 56785  69.9966 142.8905 0003670 266.4476  93.6300 15.69934397 15832,6737.222,91.724,361.559,356.614,0.0
56785.0,STARLINK-5931,PAYLOAD,2023-09-04 16:57:37,15.69764813,0.0003541,69.9971,142.1755,250.5795,109.5018,-0.0001686,-0.00020304,0.0,0 STARLINK-5931,1 56785U 23078U   23247.70667834 -.00020304  00000-0 -16860-3 0  9995,2 56785  69.9971 142.1755 0003541 250.5795 109.5018 15.69764813 15443,6737.707,91.733,361.958,357.186,0.0
56785.0,STARLINK-5931,PAYLOAD,2023-09-05 02:08:11,15.69752876,0.0003707,69.9973,141.1003,255.5813,104.4971,-0.00016294,-0.00019622,0.0,0 STARLINK-5931,1 56785U 23078U   23248.08901759 -.00019622  00000-0 -16294-3 0  9996,2 56785  69.9973 141.1003 0003707 255.5813 104.4971 15.69752876 15932,6737.741,91.734,362.104,357.108,0.0
56785.0,STARLINK-5931,PAYLOAD,2023-09-05 23:32:52,15.69719361,0.0009358,69.9978,138.5928,157.5344,202.6263,-0.0001462,-0.0001765,0.0,0 STARLINK-5931,1 56785U 23078U   23248.98116175 -.00017650  00000-0 -14620-3 0  9995,2 56785  69.9978 138.5928 0009358 157.5344 202.6263 15.69719361 15646,6737.837,91.736,366.007,353.397,0.0
56785.0,STARLINK-5931,PAYLOAD,2023-09-06 12:00:00,15.65852508,0.0003631,69.998,137.149,263.5396,134.7441,-0.0091278,-0.00841156,0.0,0 STARLINK-5931,1 56785U 23078U   23249.50001157 -.00841156  00000-0 -91278-2 0  9996,2 56785  69.9980 137.1490 0003631 263.5396 134.7441 15.65852508 15720,6748.925,91.963,373.241,368.34,0.0
56785.0,STARLINK-5931,PAYLOAD,2023-09-06 14:00:01,15.65696524,0.0003524,69.9978,136.9163,261.9253,245.9511,-0.0091899,-0.00841499,0.0,0 STARLINK-5931,1 56785U 23078U   23249.58334491 -.00841499  00000-0 -91899-2 0  9993,2 56785  69.9978 136.9163 0003524 261.9253 245.9511 15.65696524  5496,6749.373,91.972,373.617,368.86,0.0
56785.0,STARLINK-5931,PAYLOAD,2023-09-06 20:00:01,15.65267133,0.0003561,69.9983,136.2178,264.5296,211.8371,-0.010535,-0.00951977,0.0,0 STARLINK-5931,1 56785U 23078U   23249.83334491 -.00951977  00000-0 -10535-1 0  9991,2 56785  69.9983 136.2178 0003561 264.5296 211.8371 15.65267133 15776,6750.608,91.997,374.876,370.069,0.0
56785.0,STARLINK-5931,PAYLOAD,2023-09-06 22:00:00,15.65082527,0.0003529,69.9982,135.9853,263.5395,322.2418,-0.010262,-0.00923232,0.0,0 STARLINK-5931,1 56785U 23078U   23249.91667824 -.00923232  00000-0 -10262-1 0  9999,2 56785  69.9982 135.9853 0003529 263.5395 322.2418 15.65082527  5550,6751.138,92.008,375.386,370.621,0.0
56785.0,STARLINK-5931,PAYLOAD,2023-09-07 12:00:00,15.63899868,0.0003481,69.9983,134.3584,259.9232,10.332,-0.0099419,-0.00846768,0.0,0 STARLINK-5931,1 56785U 23078U   23250.50001157 -.00846768  00000-0 -99419-2 0  9997,2 56785  69.9983 134.3584 0003481 259.9232  10.3320 15.63899868 15887,6754.542,92.078,378.758,374.055,0.0
56785.0,STARLINK-5931,PAYLOAD,2023-09-07 14:00:01,15.63737577,0.000357,69.9983,134.1263,261.3021,117.9618,-0.0098856,-0.0083757,0.0,0 STARLINK-5931,1 56785U 23078U   23250.58334491 -.00837570  00000-0 -98856-2 0  9990,2 56785  69.9983 134.1263 0003570 261.3021 117.9618 15.63737577  5657,6755.009,92.087,379.285,374.462,0.0
56785.0,STARLINK-5931,PAYLOAD,2023-09-07 22:00:00,15.63123637,0.0003531,69.9982,133.1983,265.4166,189.4048,-0.011055,-0.00920481,0.0,0 STARLINK-5931,1 56785U 23078U   23250.91667824 -.00920481  00000-0 -11055-1 0  9995,2 56785  69.9982 133.1983 0003531 265.4166 189.4048 15.63123637  5710,6756.778,92.123,381.028,376.257,0.0
56785.0,STARLINK-5931,PAYLOAD,2023-09-08 12:00:00,15.61942314,0.0003502,69.998,131.5759,262.006,233.1802,-0.010669,-0.00854104,0.0,0 STARLINK-5931,1 56785U 23078U   23251.50001157 -.00854104  00000-0 -10669-1 0  9990,2 56785  69.9980 131.5759 0003502 262.0060 233.1802 15.61942314 16036,6760.184,92.193,384.416,379.682,0.0
56785.0,STARLINK-5931,PAYLOAD,2023-09-08 14:00:01,15.61789235,0.0003518,69.998,131.3444,259.1927,344.4131,-0.010837,-0.00861719,0.0,0 STARLINK-5931,1 56785U 23078U   23251.58334491 -.00861719  00000-0 -10837-1 0  9995,2 56785  69.9980 131.3444 0003518 259.1927 344.4131 15.61789235  5817,6760.626,92.202,384.869,380.112,0.0
